[{"OBJECT_NAME":"STARLINK-1566","OBJECT_ID":"2020-055BE","EPOCH":"2026-03-09T19:09:09.907776","MEAN_MOTION":15.06403842,"ECCENTRICITY":0.0001467,"INCLINATION":53.0536,"RA_OF_ASC_NODE":96.132,"ARG_OF_PERICENTER":87.79,"MEAN_ANOMALY":272.3257,"EPHEMERIS_TYPE":0,"CLASSIFICATION_TYPE":"U","NORAD_CAT_ID":46079,"ELEMENT_SET_NO":999,"REV_AT_EPOCH":30932,"BSTAR":0.00039930727,"MEAN_MOTION_DOT":5.672e-5,"MEAN_MOTION_DDOT":0},{"OBJECT_NAME":"SL-16 DEB","OBJECT_ID":"1992-093CH","EPOCH":"2026-03-09T20:51:36.974880","MEAN_MOTION":14.88689084,"ECCENTRICITY":0.0074931,"INCLINATION":70.8861,"RA_OF_ASC_NODE":315.1013,"ARG_OF_PERICENTER":150.6914,"MEAN_ANOMALY":290.361,"EPHEMERIS_TYPE":0,"CLASSIFICATION_TYPE":"U","NORAD_CAT_ID":22392,"ELEMENT_SET_NO":999,"REV_AT_EPOCH":74900,"BSTAR":0.00054238016,"MEAN_MOTION_DOT":5.266e-5,"MEAN_MOTION_DDOT":0}]
